[Satellite]
VERSION=1.1
NAME=MOLNIYA 1-71
NICKNAME=MOLNIYA 1-71
TLE1=1 18946U 88017A   15055.10023361 -.00000280  00000-0 -13377-1 0  9998
TLE2=2 18946  63.8094  80.7883 7006952 273.3914  16.6630  2.00640363197522
